[{"OBJECT_NAME":"STARLINK-31542","OBJECT_ID":"2024-045S","EPOCH":"2026-03-09T11:29:25.435104","MEAN_MOTION":15.27560483,"ECCENTRICITY":0.00012658,"INCLINATION":43.0024,"RA_OF_ASC_NODE":93.3421,"ARG_OF_PERICENTER":268.1619,"MEAN_ANOMALY":91.9087,"EPHEMERIS_TYPE":0,"CLASSIFICATION_TYPE":"U","NORAD_CAT_ID":59194,"ELEMENT_SET_NO":999,"REV_AT_EPOCH":11313,"BSTAR":-1.5162934e-5,"MEAN_MOTION_DOT":-6.79e-6,"MEAN_MOTION_DDOT":0},{"OBJECT_NAME":"HERMES-4","OBJECT_ID":"2025-052BP","EPOCH":"2026-03-09T22:05:58.629408","MEAN_MOTION":15.26796135,"ECCENTRICITY":0.00026523,"INCLINATION":97.4,"RA_OF_ASC_NODE":323.461,"ARG_OF_PERICENTER":154.9526,"MEAN_ANOMALY":205.1842,"EPHEMERIS_TYPE":0,"CLASSIFICATION_TYPE":"U","NORAD_CAT_ID":63833,"ELEMENT_SET_NO":999,"REV_AT_EPOCH":5478,"BSTAR":0.00081237216,"MEAN_MOTION_DOT":0.00021364,"MEAN_MOTION_DDOT":0}]
